H1 CPF 01  gfz 2021 06 25 00  6761 terrasarx 
H2 0702601  6201 31698    2021 06 25 00 59 42 2021 06 30 00 00 42   120 1 1  0 0 0
H9
10 0 59391  33102.000000  0    4254973.074  -5042368.936  -1991835.550
10 0 59391  33222.000000  0    3913290.929  -4913527.173  -2837650.801
10 0 59391  33342.000000  0    3506458.701  -4692491.254  -3633654.314
10 0 59391  33462.000000  0    3043219.442  -4382135.307  -4365938.068
10 0 59391  33582.000000  0    2533220.316  -3987043.795  -5021743.433
10 0 59391  33702.000000  0    1986808.189  -3513435.170  -5589677.369
10 0 59391  33822.000000  0    1414818.563  -2969056.694  -6059900.124
10 0 59391  33942.000000  0     828361.041  -2363052.887  -6424285.609
10 0 59391  34062.000000  0     238604.564  -1705807.970  -6676551.642
10 0 59391  34182.000000  0    -343432.221  -1008765.976  -6812357.456
10 0 59391  34302.000000  0    -907081.530   -284232.876  -6829369.545
10 0 59391  34422.000000  0   -1442216.973    454836.260  -6727296.869
10 0 59391  34542.000000  0   -1939431.404   1195062.820  -6507894.736
10 0 59391  34662.000000  0   -2390198.279   1922880.824  -6174937.860
10 0 59391  34782.000000  0   -2787015.910   2624779.448  -5734162.999
10 0 59391  34902.000000  0   -3123532.772   3287550.680  -5193180.890
10 0 59391  35022.000000  0   -3394651.945   3898537.558  -4561356.847
10 0 59391  35142.000000  0   -3596612.577   4445878.576  -3849659.080
10 0 59391  35262.000000  0   -3727044.519   4918742.141  -3070476.392
10 0 59391  35382.000000  0   -3784995.767   5307546.176  -2237409.818
10 0 59391  35502.000000  0   -3770933.603   5604159.630  -1365039.640
10 0 59391  35622.000000  0   -3686716.788   5802080.647   -468669.722
10 0 59391  35742.000000  0   -3535538.383   5896583.262    435945.778
10 0 59391  35862.000000  0   -3321842.818   5884830.662   1332886.012
10 0 59391  35982.000000  0   -3051215.315   5765951.463   2206354.126
10 0 59391  36102.000000  0   -2730246.893   5541074.348   3040965.856
10 0 59391  36222.000000  0   -2366380.455   5213321.031   3822027.541
10 0 59391  36342.000000  0   -1967742.129   4787760.228   4535799.405
10 0 59391  36462.000000  0   -1542961.868   4271323.257   5169739.449
10 0 59391  36582.000000  0   -1100986.936   3672683.531   5712723.911
10 0 59391  36702.000000  0    -650893.712   3002102.229   6155238.735
10 0 59391  36822.000000  0    -201702.100   2271244.924   6489540.660
10 0 59391  36942.000000  0     237803.849   1492974.095   6709786.342
10 0 59391  37062.000000  0     659246.844    681119.479   6812129.369
10 0 59391  37182.000000  0    1054814.945   -149768.526   6794782.071
10 0 59391  37302.000000  0    1417405.312   -984678.452   6658045.613
10 0 59391  37422.000000  0    1740751.544  -1808408.676   6404305.525
10 0 59391  37542.000000  0    2019532.393  -2605843.637   6037993.285
10 0 59391  37662.000000  0    2249460.360  -3362232.664   5565514.025
10 0 59391  37782.000000  0    2427348.570  -4063465.711   4995139.716
10 0 59391  37902.000000  0    2551154.283  -4696340.495   4336869.992
10 0 59391  38022.000000  0    2619999.985  -5248817.723   3602261.872
10 0 59391  38142.000000  0    2634169.830  -5710258.141   2804228.955
10 0 59391  38262.000000  0    2595080.816  -6071636.353   1956813.987
10 0 59391  38382.000000  0    2505229.816  -6325723.691   1074937.787
10 0 59391  38502.000000  0    2368118.349  -6467237.634    174132.166
10 0 59391  38622.000000  0    2188156.626  -6492955.669   -729741.068
10 0 59391  38742.000000  0    1970547.989  -6401786.577  -1620780.117
10 0 59391  38862.000000  0    1721156.175  -6194797.360  -2483331.376
10 0 59391  38982.000000  0    1446360.462  -5875198.072  -3302272.034
10 0 59391  39102.000000  0    1152902.484  -5448279.971  -4063278.601
10 0 59391  39222.000000  0     847730.329  -4921316.449  -4753076.489
10 0 59391  39342.000000  0     537841.512  -4303426.965  -5359667.277
10 0 59391  39462.000000  0     230129.332  -3605408.443  -5872529.963
10 0 59391  39582.000000  0     -68764.198  -2839537.553  -6282793.468
10 0 59391  39702.000000  0    -352585.730  -2019349.245  -6583378.564
10 0 59391  39822.000000  0    -615596.047  -1159395.877  -6769108.722
10 0 59391  39942.000000  0    -852681.289   -274991.105  -6836790.436
10 0 59391  40062.000000  0   -1059448.557    618058.627  -6785261.558
10 0 59391  40182.000000  0   -1232305.064   1503729.220  -6615408.224
10 0 59391  40302.000000  0   -1368519.164   2366059.131  -6330151.057
10 0 59391  40422.000000  0   -1466262.763   3189430.105  -5934401.479
10 0 59391  40542.000000  0   -1524635.161   3958847.209  -5434986.719
10 0 59391  40662.000000  0   -1543666.871   4660211.424  -4840543.008
10 0 59391  40782.000000  0   -1524304.248   5280582.248  -4161377.831
10 0 59391  40902.000000  0   -1468374.243   5808423.635  -3409300.462
10 0 59391  41022.000000  0   -1378529.389   6233827.332  -2597424.118
10 0 59391  41142.000000  0   -1258174.597   6548710.342  -1739942.834
10 0 59391  41262.000000  0   -1111376.740   6746980.499   -851883.856
10 0 59391  41382.000000  0    -942759.218   6824664.789     51157.433
10 0 59391  41502.000000  0    -757383.380   6779998.843    953297.129
10 0 59391  41622.000000  0    -560620.050   6613471.508   1838652.299
10 0 59391  41742.000000  0    -358014.632   6327820.854   2691630.938
10 0 59391  41862.000000  0    -155149.533   5927985.071   3497213.458
10 0 59391  41982.000000  0      42492.433   5421011.793   4241222.111
10 0 59391  42102.000000  0     229660.640   4815927.581   4910577.117
10 0 59391  42222.000000  0     401463.133   4123562.133   5493527.968
10 0 59391  42342.000000  0     553482.389   3356346.079   5979853.896
10 0 59391  42462.000000  0     681878.226   2528080.042   6361040.390
10 0 59391  42582.000000  0     783475.307   1653679.550   6630421.988
10 0 59391  42702.000000  0     855834.589    748902.269   6783293.029
10 0 59391  42822.000000  0     897307.068   -169937.445   6816983.899
10 0 59391  42942.000000  0     907069.028  -1086261.361   6730905.423
10 0 59391  43062.000000  0     885138.047  -1983526.467   6526559.390
10 0 59391  43182.000000  0     832369.541  -2845523.452   6207514.499
10 0 59391  43302.000000  0     750433.746  -3656671.664   5779347.517
10 0 59391  43422.000000  0     641773.538  -4402302.241   5249549.025
10 0 59391  43542.000000  0     509545.383  -5068926.334   4627398.896
10 0 59391  43662.000000  0     357543.197  -5644486.599   3923810.975
10 0 59391  43782.000000  0     190105.605  -6118585.917   3151145.349
10 0 59391  43902.000000  0      12009.242  -6482685.810   2322991.891
10 0 59391  44022.000000  0    -171649.662  -6730269.258   1453928.947
10 0 59391  44142.000000  0    -355582.186  -6856966.391    559263.286
10 0 59391  44262.000000  0    -534439.733  -6860638.401   -345248.337
10 0 59391  44382.000000  0    -702948.919  -6741413.952  -1243686.815
10 0 59391  44502.000000  0    -856044.377  -6501679.299  -2120259.493
10 0 59391  44622.000000  0    -988996.780  -6146024.433  -2959584.334
10 0 59391  44742.000000  0   -1097533.189  -5681146.203  -3746965.006
10 0 59391  44862.000000  0   -1177946.395  -5115710.106  -4468650.371
10 0 59391  44982.000000  0   -1227190.365  -4460175.562  -5112071.836
10 0 59391  45102.000000  0   -1242960.238  -3726591.205  -5666055.591
10 0 59391  45222.000000  0   -1223755.045  -2928364.636  -6121007.734
10 0 59391  45342.000000  0   -1168922.197  -2080011.288  -6469069.947
10 0 59391  45462.000000  0   -1078683.304  -1196887.895  -6704243.466
10 0 59391  45582.000000  0    -954141.441   -294916.339  -6822481.962
10 0 59391  45702.000000  0    -797269.307    609698.981  -6821753.326
10 0 59391  45822.000000  0    -610877.988   1500754.945  -6702069.915
10 0 59391  45942.000000  0    -398568.132   2362332.246  -6465488.295
10 0 59391  46062.000000  0    -164663.715   3179072.992  -6116078.847
10 0 59391  46182.000000  0      85872.136   3936451.583  -5659864.394
10 0 59391  46302.000000  0     347537.282   4621032.398  -5104725.814
10 0 59391  46422.000000  0     614404.447   5220711.117  -4460277.805
10 0 59391  46542.000000  0     880247.847   5724936.511  -3737713.266
10 0 59391  46662.000000  0    1138680.117   6124906.034  -2949617.510
10 0 59391  46782.000000  0    1383296.486   6413731.448  -2109755.369
10 0 59391  46902.000000  0    1607823.339   6586570.383  -1232833.092
10 0 59391  47022.000000  0    1806267.626   6640719.157   -334238.834
10 0 59391  47142.000000  0    1973062.905   6575662.814    570232.980
10 0 59391  47262.000000  0    2103207.746   6393081.423   1464666.327
10 0 59391  47382.000000  0    2192393.782   6096812.855   2333311.613
10 0 59391  47502.000000  0    2237119.784   5692772.271   3160870.913
10 0 59391  47622.000000  0    2234789.236   5188831.136   3932774.915
10 0 59391  47742.000000  0    2183787.666   4594657.519   4635445.842
10 0 59391  47862.000000  0    2083538.483   3921520.162   5256540.350
10 0 59391  47982.000000  0    1934535.605   3182063.752   5785163.076
10 0 59391  48102.000000  0    1738354.586   2390065.202   6212053.327
10 0 59391  48222.000000  0    1497640.432   1560171.129   6529743.174
10 0 59391  48342.000000  0    1216072.464    707621.904   6732681.867
10 0 59391  48462.000000  0     898307.589   -152029.558   6817325.668
10 0 59391  48582.000000  0     549903.159  -1003200.023   6782196.833
10 0 59391  48702.000000  0     177219.538  -1830558.769   6627908.865
10 0 59391  48822.000000  0    -212696.174  -2619303.597   6357156.281
10 0 59391  48942.000000  0    -612242.866  -3355426.814   5974669.578
10 0 59391  49062.000000  0   -1013411.057  -4025964.587   5487135.274
10 0 59391  49182.000000  0   -1407940.346  -4619227.322   4903086.344
10 0 59391  49302.000000  0   -1787488.369  -5125010.512   4232761.494
10 0 59391  49422.000000  0   -2143806.443  -5534780.366   3487930.493
10 0 59391  49542.000000  0   -2468917.684  -5841826.965   2681688.218
99
